{"fetched_at":"2026-07-20T18:28:56.744Z","source":"https://celestrak.org/NORAD/elements/gp.php?GROUP=planet&FORMAT=JSON","constellation":"superdove","records":[{"OBJECT_NAME":"FLOCK 4Q-16","OBJECT_ID":"2023-174R","EPOCH":"2026-07-20T05:21:27.730368","CLASSIFICATION_TYPE":"U","MEAN_MOTION":15.50512879,"ECCENTRICITY":0.00065848,"INCLINATION":97.3813,"RA_OF_ASC_NODE":290.1285,"ARG_OF_PERICENTER":62.5146,"MEAN_ANOMALY":297.6774,"EPHEMERIS_TYPE":0,"NORAD_CAT_ID":58271,"ELEMENT_SET_NO":999,"REV_AT_EPOCH":15069,"BSTAR":0.00025269538,"MEAN_MOTION_DOT":0.00014341,"MEAN_MOTION_DDOT":0},{"OBJECT_NAME":"FLOCK 4Q-11","OBJECT_ID":"2023-174T","EPOCH":"2026-07-19T19:22:50.596320","CLASSIFICATION_TYPE":"U","MEAN_MOTION":15.51018383,"ECCENTRICITY":0.0006043,"INCLINATION":97.3849,"RA_OF_ASC_NODE":290.3436,"ARG_OF_PERICENTER":57.7457,"MEAN_ANOMALY":302.438,"EPHEMERIS_TYPE":0,"NORAD_CAT_ID":58273,"ELEMENT_SET_NO":999,"REV_AT_EPOCH":15064,"BSTAR":0.00031764388,"MEAN_MOTION_DOT":0.00018385,"MEAN_MOTION_DDOT":0},{"OBJECT_NAME":"FLOCK 4Q-28","OBJECT_ID":"2023-174AA","EPOCH":"2026-07-19T18:41:11.262048","CLASSIFICATION_TYPE":"U","MEAN_MOTION":15.56935935,"ECCENTRICITY":0.00043797,"INCLINATION":97.3874,"RA_OF_ASC_NODE":293.093,"ARG_OF_PERICENTER":49.0281,"MEAN_ANOMALY":311.1352,"EPHEMERIS_TYPE":0,"NORAD_CAT_ID":58280,"ELEMENT_SET_NO":999,"REV_AT_EPOCH":15081,"BSTAR":0.00024889378,"MEAN_MOTION_DOT":0.00017833,"MEAN_MOTION_DDOT":0},{"OBJECT_NAME":"FLOCK 4Q-27","OBJECT_ID":"2023-174AC","EPOCH":"2026-07-20T05:30:40.851936","CLASSIFICATION_TYPE":"U","MEAN_MOTION":15.57168169,"ECCENTRICITY":0.00035425,"INCLINATION":97.3803,"RA_OF_ASC_NODE":292.9634,"ARG_OF_PERICENTER":53.1751,"MEAN_ANOMALY":306.9829,"EPHEMERIS_TYPE":0,"NORAD_CAT_ID":58282,"ELEMENT_SET_NO":999,"REV_AT_EPOCH":15089,"BSTAR":0.00031475541,"MEAN_MOTION_DOT":0.00022787,"MEAN_MOTION_DDOT":0},{"OBJECT_NAME":"FLOCK 4Q-7","OBJECT_ID":"2023-174BQ","EPOCH":"2026-07-19T19:07:20.711136","CLASSIFICATION_TYPE":"U","MEAN_MOTION":15.57562253,"ECCENTRICITY":0.00041712,"INCLINATION":97.3901,"RA_OF_ASC_NODE":293.444,"ARG_OF_PERICENTER":25.8466,"MEAN_ANOMALY":334.2997,"EPHEMERIS_TYPE":0,"NORAD_CAT_ID":58318,"ELEMENT_SET_NO":999,"REV_AT_EPOCH":15082,"BSTAR":0.00028787472,"MEAN_MOTION_DOT":0.00021138,"MEAN_MOTION_DDOT":0},{"OBJECT_NAME":"FLOCK 4Q-2","OBJECT_ID":"2023-174BS","EPOCH":"2026-07-20T02:45:41.402592","CLASSIFICATION_TYPE":"U","MEAN_MOTION":15.50979134,"ECCENTRICITY":0.00042914,"INCLINATION":97.3835,"RA_OF_ASC_NODE":290.3704,"ARG_OF_PERICENTER":35.4626,"MEAN_ANOMALY":324.691,"EPHEMERIS_TYPE":0,"NORAD_CAT_ID":58320,"ELEMENT_SET_NO":999,"REV_AT_EPOCH":15070,"BSTAR":0.00027655179,"MEAN_MOTION_DOT":0.00015962,"MEAN_MOTION_DDOT":0},{"OBJECT_NAME":"FLOCK 4Q-9","OBJECT_ID":"2023-174BU","EPOCH":"2026-07-20T04:40:12.475776","CLASSIFICATION_TYPE":"U","MEAN_MOTION":15.51517766,"ECCENTRICITY":0.000515,"INCLINATION":97.3841,"RA_OF_ASC_NODE":290.5685,"ARG_OF_PERICENTER":33.6411,"MEAN_ANOMALY":326.5168,"EPHEMERIS_TYPE":0,"NORAD_CAT_ID":58322,"ELEMENT_SET_NO":999,"REV_AT_EPOCH":15070,"BSTAR":0.00027920683,"MEAN_MOTION_DOT":0.00016432,"MEAN_MOTION_DDOT":0},{"OBJECT_NAME":"FLOCK 4Q-4","OBJECT_ID":"2023-174BZ","EPOCH":"2026-07-20T03:34:45.023808","CLASSIFICATION_TYPE":"U","MEAN_MOTION":15.5000296,"ECCENTRICITY":0.00053752,"INCLINATION":97.382,"RA_OF_ASC_NODE":289.6236,"ARG_OF_PERICENTER":61.0879,"MEAN_ANOMALY":299.0911,"EPHEMERIS_TYPE":0,"NORAD_CAT_ID":58327,"ELEMENT_SET_NO":999,"REV_AT_EPOCH":15066,"BSTAR":0.00025653773,"MEAN_MOTION_DOT":0.00014296,"MEAN_MOTION_DDOT":0},{"OBJECT_NAME":"FLOCK 4Q-13","OBJECT_ID":"2023-174CA","EPOCH":"2026-07-20T06:04:53.954400","CLASSIFICATION_TYPE":"U","MEAN_MOTION":15.5302816,"ECCENTRICITY":0.00054441,"INCLINATION":97.3994,"RA_OF_ASC_NODE":293.0708,"ARG_OF_PERICENTER":40.2272,"MEAN_ANOMALY":319.9383,"EPHEMERIS_TYPE":0,"NORAD_CAT_ID":58328,"ELEMENT_SET_NO":999,"REV_AT_EPOCH":15080,"BSTAR":0.00025904378,"MEAN_MOTION_DOT":0.00016088,"MEAN_MOTION_DDOT":0},{"OBJECT_NAME":"FLOCK 4BE-18","OBJECT_ID":"2024-149N","EPOCH":"2026-07-20T00:55:27.912000","CLASSIFICATION_TYPE":"U","MEAN_MOTION":15.4281206,"ECCENTRICITY":0.00054072,"INCLINATION":97.3715,"RA_OF_ASC_NODE":285.134,"ARG_OF_PERICENTER":132.0784,"MEAN_ANOMALY":228.0924,"EPHEMERIS_TYPE":0,"NORAD_CAT_ID":60480,"ELEMENT_SET_NO":999,"REV_AT_EPOCH":10737,"BSTAR":0.00024408838,"MEAN_MOTION_DOT":0.00010609,"MEAN_MOTION_DDOT":0},{"OBJECT_NAME":"FLOCK 4BE-7","OBJECT_ID":"2024-149P","EPOCH":"2026-07-20T03:22:16.540608","CLASSIFICATION_TYPE":"U","MEAN_MOTION":15.41607705,"ECCENTRICITY":0.00044836,"INCLINATION":97.3745,"RA_OF_ASC_NODE":284.5203,"ARG_OF_PERICENTER":136.8589,"MEAN_ANOMALY":223.301,"EPHEMERIS_TYPE":0,"NORAD_CAT_ID":60481,"ELEMENT_SET_NO":999,"REV_AT_EPOCH":10732,"BSTAR":0.00036218405,"MEAN_MOTION_DOT":0.00015168,"MEAN_MOTION_DDOT":0},{"OBJECT_NAME":"FLOCK 4BE-36","OBJECT_ID":"2024-149U","EPOCH":"2026-07-20T04:29:06.197856","CLASSIFICATION_TYPE":"U","MEAN_MOTION":15.4364323,"ECCENTRICITY":0.00051047,"INCLINATION":97.3731,"RA_OF_ASC_NODE":286.0318,"ARG_OF_PERICENTER":138.8538,"MEAN_ANOMALY":221.3096,"EPHEMERIS_TYPE":0,"NORAD_CAT_ID":60486,"ELEMENT_SET_NO":999,"REV_AT_EPOCH":10744,"BSTAR":0.00023528592,"MEAN_MOTION_DOT":0.00010513,"MEAN_MOTION_DDOT":0},{"OBJECT_NAME":"FLOCK 4BE-25","OBJECT_ID":"2024-149V","EPOCH":"2026-07-19T18:53:41.282304","CLASSIFICATION_TYPE":"U","MEAN_MOTION":15.39621177,"ECCENTRICITY":0.00039218,"INCLINATION":97.3784,"RA_OF_ASC_NODE":284.1764,"ARG_OF_PERICENTER":131.7493,"MEAN_ANOMALY":228.4089,"EPHEMERIS_TYPE":0,"NORAD_CAT_ID":60487,"ELEMENT_SET_NO":999,"REV_AT_EPOCH":10725,"BSTAR":0.00020872762,"MEAN_MOTION_DOT":0.00008142,"MEAN_MOTION_DDOT":0},{"OBJECT_NAME":"FLOCK 4BE-31","OBJECT_ID":"2024-149W","EPOCH":"2026-07-19T17:34:17.266656","CLASSIFICATION_TYPE":"U","MEAN_MOTION":15.45268472,"ECCENTRICITY":0.00040826,"INCLINATION":97.3787,"RA_OF_ASC_NODE":286.5284,"ARG_OF_PERICENTER":139.5117,"MEAN_ANOMALY":220.6436,"EPHEMERIS_TYPE":0,"NORAD_CAT_ID":60488,"ELEMENT_SET_NO":999,"REV_AT_EPOCH":10740,"BSTAR":0.00025166908,"MEAN_MOTION_DOT":0.0001189,"MEAN_MOTION_DDOT":0},{"OBJECT_NAME":"FLOCK 4BE-20","OBJECT_ID":"2024-149X","EPOCH":"2026-07-20T03:45:42.748992","CLASSIFICATION_TYPE":"U","MEAN_MOTION":15.38888049,"ECCENTRICITY":0.00053205,"INCLINATION":97.3681,"RA_OF_ASC_NODE":283.3445,"ARG_OF_PERICENTER":139.8317,"MEAN_ANOMALY":220.3322,"EPHEMERIS_TYPE":0,"NORAD_CAT_ID":60489,"ELEMENT_SET_NO":999,"REV_AT_EPOCH":10728,"BSTAR":0.00018554097,"MEAN_MOTION_DOT":0.00007057,"MEAN_MOTION_DDOT":0},{"OBJECT_NAME":"FLOCK 4BE-23","OBJECT_ID":"2024-149Y","EPOCH":"2026-07-20T03:44:44.560320","CLASSIFICATION_TYPE":"U","MEAN_MOTION":15.38445396,"ECCENTRICITY":0.00049894,"INCLINATION":97.3766,"RA_OF_ASC_NODE":283.7369,"ARG_OF_PERICENTER":143.2036,"MEAN_ANOMALY":216.9552,"EPHEMERIS_TYPE":0,"NORAD_CAT_ID":60490,"ELEMENT_SET_NO":999,"REV_AT_EPOCH":10726,"BSTAR":0.00022066083,"MEAN_MOTION_DOT":0.00008288,"MEAN_MOTION_DDOT":0}]}
