FLOCK 4Q-16             
1 58271U 23174R   26201.22323762  .00014341  00000+0  25270-3 0  9999
2 58271  97.3813 290.1285 0006584  62.5146 297.6774 15.50512879150696
FLOCK 4Q-11             
1 58273U 23174T   26200.80753005  .00018385  00000+0  31764-3 0  9998
2 58273  97.3849 290.3436 0006043  57.7457 302.4380 15.51018383150643
FLOCK 4Q-28             
1 58280U 23174AA  26200.77860257  .00017833  00000+0  24889-3 0  9997
2 58280  97.3874 293.0930 0004379  49.0281 311.1352 15.56935935150818
FLOCK 4Q-27             
1 58282U 23174AC  26201.22963949  .00022787  00000+0  31476-3 0  9996
2 58282  97.3803 292.9634 0003542  53.1751 306.9829 15.57168169150897
FLOCK 4Q-7              
1 58318U 23174BQ  26200.79676749  .00021138  00000+0  28787-3 0  9996
2 58318  97.3901 293.4440 0004171  25.8466 334.2997 15.57562253150820
FLOCK 4Q-2              
1 58320U 23174BS  26201.11506253  .00015962  00000+0  27655-3 0  9999
2 58320  97.3835 290.3704 0004291  35.4626 324.6910 15.50979134150704
FLOCK 4Q-9              
1 58322U 23174BU  26201.19458884  .00016432  00000+0  27921-3 0  9994
2 58322  97.3841 290.5685 0005150  33.6411 326.5168 15.51517766150706
FLOCK 4Q-4              
1 58327U 23174BZ  26201.14913222  .00014296  00000+0  25654-3 0  9993
2 58327  97.3820 289.6236 0005375  61.0879 299.0911 15.50002960150660
FLOCK 4Q-13             
1 58328U 23174CA  26201.25340225  .00016088  00000+0  25904-3 0  9992
2 58328  97.3994 293.0708 0005444  40.2272 319.9383 15.53028160150803
FLOCK 4BE-18            
1 60480U 24149N   26201.03851750  .00010609  00000+0  24409-3 0  9995
2 60480  97.3715 285.1340 0005407 132.0784 228.0924 15.42812060107370
FLOCK 4BE-7             
1 60481U 24149P   26201.14046922  .00015168  00000+0  36218-3 0  9991
2 60481  97.3745 284.5203 0004483 136.8589 223.3010 15.41607705107329
FLOCK 4BE-36            
1 60486U 24149U   26201.18687729  .00010513  00000+0  23529-3 0  9996
2 60486  97.3731 286.0318 0005104 138.8538 221.3096 15.43643230107440
FLOCK 4BE-25            
1 60487U 24149V   26200.78728336  .00008142  00000+0  20873-3 0  9996
2 60487  97.3784 284.1764 0003921 131.7493 228.4089 15.39621177107250
FLOCK 4BE-31            
1 60488U 24149W   26200.73214429  .00011890  00000+0  25167-3 0  9990
2 60488  97.3787 286.5284 0004082 139.5117 220.6436 15.45268472107404
FLOCK 4BE-20            
1 60489U 24149X   26201.15674478  .00007057  00000+0  18554-3 0  9994
2 60489  97.3681 283.3445 0005320 139.8317 220.3322 15.38888049107280
FLOCK 4BE-23            
1 60490U 24149Y   26201.15607130  .00008288  00000+0  22066-3 0  9997
2 60490  97.3766 283.7369 0004989 143.2036 216.9552 15.38445396107260
